{"type": "FeatureCollection", "features": [ {"type": "Feature", "properties": {"norad_id": 35890, "name": "COSMOS 2251 DEB", "group": "cosmos-2251-debris", "lat": -22.261457667691367, "lon": 57.53605668680555, "alt_km": 739.4349248910967, "timestamp": "2025-12-18T23:35:49.460080+00:00", "meta": {"OBJECT_NAME": "COSMOS 2251 DEB", "OBJECT_ID": "1993-036AUD", "EPOCH": "2025-12-16T22:53:46.078656", "MEAN_MOTION": 14.57543512, "ECCENTRICITY": 0.00539437, "INCLINATION": 73.9365, "RA_OF_ASC_NODE": 234.6414, "ARG_OF_PERICENTER": 358.5125, "MEAN_ANOMALY": 1.5869, "EPHEMERIS_TYPE": 0, "CLASSIFICATION_TYPE": "U", "NORAD_CAT_ID": 35890, "ELEMENT_SET_NO": 999, "REV_AT_EPOCH": 65212, "BSTAR": 0.0012168345, "MEAN_MOTION_DOT": 5.621e-05, "MEAN_MOTION_DDOT": 0}, "tle": {"line1": "1 35890U 93036AUD 25350.95400554  .00005621  00000+0  12168-2 0  9996", "line2": "2 35890  73.9365 234.6414 0053943 358.5125   1.5869 14.57543512652129"}}, "geometry": {"type": "Point", "coordinates": [57.53605668680555, -22.261457667691367]}}, {"type": "Feature", "properties": {"norad_id": 35891, "name": "COSMOS 2251 DEB", "group": "cosmos-2251-debris", "lat": 7.313355613818276, "lon": 82.58685057793363, "alt_km": 493.08336994076944, "timestamp": "2025-12-18T23:35:49.460091+00:00", "meta": {"OBJECT_NAME": "COSMOS 2251 DEB", "OBJECT_ID": "1993-036AUE", "EPOCH": "2025-12-18T00:04:56.129088", "MEAN_MOTION": 15.33761767, "ECCENTRICITY": 0.00426193, "INCLINATION": 73.9894, "RA_OF_ASC_NODE": 82.5774, "ARG_OF_PERICENTER": 212.1701, "MEAN_ANOMALY": 147.6903, "EPHEMERIS_TYPE": 0, "CLASSIFICATION_TYPE": "U", "NORAD_CAT_ID": 35891, "ELEMENT_SET_NO": 999, "REV_AT_EPOCH": 67301, "BSTAR": 0.0011390165, "MEAN_MOTION_DOT": 0.00038445, "MEAN_MOTION_DDOT": 0}, "tle": {"line1": "1 35891U 93036AUE 25352.00342742  .00038445  00000+0  11390-2 0  9995", "line2": "2 35891  73.9894  82.5774 0042619 212.1701 147.6903 15.33761767673010"}}, "geometry": {"type": "Point", "coordinates": [82.58685057793363, 7.313355613818276]}}, {"type": "Feature", "properties": {"norad_id": 35895, "name": "COSMOS 2251 DEB", "group": "cosmos-2251-debris", "lat": -55.611857524325714, "lon": -178.4615616330351, "alt_km": 1034.5980134505453, "timestamp": "2025-12-18T23:35:49.460102+00:00", "meta": {"OBJECT_NAME": "COSMOS 2251 DEB", "OBJECT_ID": "1993-036AUJ", "EPOCH": "2025-12-11T07:10:31.732032", "MEAN_MOTION": 14.01513994, "ECCENTRICITY": 0.01987879, "INCLINATION": 74.0502, "RA_OF_ASC_NODE": 350.1634, "ARG_OF_PERICENTER": 88.7843, "MEAN_ANOMALY": 273.6056, "EPHEMERIS_TYPE": 0, "CLASSIFICATION_TYPE": "U", "NORAD_CAT_ID": 35895, "ELEMENT_SET_NO": 999, "REV_AT_EPOCH": 58992, "BSTAR": 0.0020881347, "MEAN_MOTION_DOT": 3.73e-05, "MEAN_MOTION_DDOT": 0}, "tle": {"line1": "1 35895U 93036AUJ 25345.29897838  .00003730  00000+0  20881-2 0  9997", "line2": "2 35895  74.0502 350.1634 0198787  88.7843 273.6056 14.01513994589929"}}, "geometry": {"type": "Point", "coordinates": [-178.4615616330351, -55.611857524325714]}}, {"type": "Feature", "properties": {"norad_id": 35898, "name": "COSMOS 2251 DEB", "group": "cosmos-2251-debris", "lat": 34.26428498714729, "lon": -63.887974598281815, "alt_km": 532.8845207438972, "timestamp": "2025-12-18T23:35:49.460112+00:00", "meta": {"OBJECT_NAME": "COSMOS 2251 DEB", "OBJECT_ID": "1993-036AUM", "EPOCH": "2025-12-17T02:32:30.687072", "MEAN_MOTION": 14.94779467, "ECCENTRICITY": 0.00792454, "INCLINATION": 73.9918, "RA_OF_ASC_NODE": 288.6268, "ARG_OF_PERICENTER": 70.8936, "MEAN_ANOMALY": 307.548, "EPHEMERIS_TYPE": 0, "CLASSIFICATION_TYPE": "U", "NORAD_CAT_ID": 35898, "ELEMENT_SET_NO": 999, "REV_AT_EPOCH": 66875, "BSTAR": 0.00065982938, "MEAN_MOTION_DOT": 7.606e-05, "MEAN_MOTION_DDOT": 0}, "tle": {"line1": "1 35898U 93036AUM 25351.10591073  .00007606  00000+0  65983-3 0  9998", "line2": "2 35898  73.9918 288.6268 0079245  70.8936 307.5480 14.94779467668759"}}, "geometry": {"type": "Point", "coordinates": [-63.887974598281815, 34.26428498714729]}}, {"type": "Feature", "properties": {"norad_id": 35901, "name": "COSMOS 2251 DEB", "group": "cosmos-2251-debris", "lat": -35.94130461406438, "lon": -1.9844528695944486, "alt_km": 544.6200988814053, "timestamp": "2025-12-18T23:35:49.460123+00:00", "meta": {"OBJECT_NAME": "COSMOS 2251 DEB", "OBJECT_ID": "1993-036AUQ", "EPOCH": "2025-12-18T07:54:31.180320", "MEAN_MOTION": 15.07563812, "ECCENTRICITY": 0.00074748, "INCLINATION": 74.0102, "RA_OF_ASC_NODE": 11.3599, "ARG_OF_PERICENTER": 345.0376, "MEAN_ANOMALY": 31.2157, "EPHEMERIS_TYPE": 0, "CLASSIFICATION_TYPE": "U", "NORAD_CAT_ID": 35901, "ELEMENT_SET_NO": 999, "REV_AT_EPOCH": 86211, "BSTAR": 0.0030424151, "MEAN_MOTION_DOT": 0.00046563, "MEAN_MOTION_DDOT": 0}, "tle": {"line1": "1 35901U 93036AUQ 25352.32952755  .00046563  00000+0  30424-2 0  9992", "line2": "2 35901  74.0102  11.3599 0007474 345.0376  31.2157 15.07563812862117"}}, "geometry": {"type": "Point", "coordinates": [-1.9844528695944486, -35.94130461406438]}}, {"type": "Feature", "properties": {"norad_id": 35902, "name": "COSMOS 2251 DEB", "group": "cosmos-2251-debris", "lat": -58.02098169474244, "lon": 70.64614150072101, "alt_km": 813.9164049821975, "timestamp": "2025-12-18T23:35:49.460133+00:00", "meta": {"OBJECT_NAME": "COSMOS 2251 DEB", "OBJECT_ID": "1993-036AUR", "EPOCH": "2025-12-12T01:33:56.017152", "MEAN_MOTION": 14.26898947, "ECCENTRICITY": 0.01020569, "INCLINATION": 73.9828, "RA_OF_ASC_NODE": 235.8058, "ARG_OF_PERICENTER": 350.6999, "MEAN_ANOMALY": 9.2255, "EPHEMERIS_TYPE": 0, "CLASSIFICATION_TYPE": "U", "NORAD_CAT_ID": 35902, "ELEMENT_SET_NO": 999, "REV_AT_EPOCH": 61120, "BSTAR": 0.0016300387, "MEAN_MOTION_DOT": 4.159e-05, "MEAN_MOTION_DDOT": 0}, "tle": {"line1": "1 35902U 93036AUR 25346.06523168  .00004159  00000+0  16300-2 0  9991", "line2": "2 35902  73.9828 235.8058 0102056 350.6999   9.2255 14.26898947611205"}}, "geometry": {"type": "Point", "coordinates": [70.64614150072101, -58.02098169474244]}}, {"type": "Feature", "properties": {"norad_id": 35905, "name": "COSMOS 2251 DEB", "group": "cosmos-2251-debris", "lat": 15.911518797618793, "lon": -157.18011682416378, "alt_km": 580.3841566797082, "timestamp": "2025-12-18T23:35:49.460143+00:00", "meta": {"OBJECT_NAME": "COSMOS 2251 DEB", "OBJECT_ID": "1993-036AUU", "EPOCH": "2025-12-18T07:30:24.992928", "MEAN_MOTION": 14.99094801, "ECCENTRICITY": 0.00906852, "INCLINATION": 74.0306, "RA_OF_ASC_NODE": 199.498, "ARG_OF_PERICENTER": 278.2815, "MEAN_ANOMALY": 80.8096, "EPHEMERIS_TYPE": 0, "CLASSIFICATION_TYPE": "U", "NORAD_CAT_ID": 35905, "ELEMENT_SET_NO": 999, "REV_AT_EPOCH": 88666, "BSTAR": 0.00045535942, "MEAN_MOTION_DOT": 5.988e-05, "MEAN_MOTION_DDOT": 0}, "tle": {"line1": "1 35905U 93036AUU 25352.31278927  .00005988  00000+0  45536-3 0  9994", "line2": "2 35905  74.0306 199.4980 0090685 278.2815  80.8096 14.99094801886665"}}, "geometry": {"type": "Point", "coordinates": [-157.18011682416378, 15.911518797618793]}}, {"type": "Feature", "properties": {"norad_id": 35959, "name": "COSMOS 2251 DEB", "group": "cosmos-2251-debris", "lat": 47.54176512294623, "lon": 102.3991783888953, "alt_km": 778.749704281091, "timestamp": "2025-12-18T23:35:49.460155+00:00", "meta": {"OBJECT_NAME": "COSMOS 2251 DEB", "OBJECT_ID": "1993-036AUZ", "EPOCH": "2025-12-18T02:54:20.383200", "MEAN_MOTION": 14.34139826, "ECCENTRICITY": 0.00217869, "INCLINATION": 74.0326, "RA_OF_ASC_NODE": 302.2118, "ARG_OF_PERICENTER": 21.1868, "MEAN_ANOMALY": 339.0181, "EPHEMERIS_TYPE": 0, "CLASSIFICATION_TYPE": "U", "NORAD_CAT_ID": 35959, "ELEMENT_SET_NO": 999, "REV_AT_EPOCH": 85005, "BSTAR": 0.00010326625, "MEAN_MOTION_DOT": 2.64e-06, "MEAN_MOTION_DDOT": 0}, "tle": {"line1": "1 35959U 93036AUZ 25352.12106925  .00000264  00000+0  10327-3 0  9992", "line2": "2 35959  74.0326 302.2118 0021786  21.1868 339.0181 14.34139826850056"}}, "geometry": {"type": "Point", "coordinates": [102.3991783888953, 47.54176512294623]}}, {"type": "Feature", "properties": {"norad_id": 35961, "name": "COSMOS 2251 DEB", "group": "cosmos-2251-debris", "lat": 41.617247531060556, "lon": -1.6440371652790218, "alt_km": 734.6983044660637, "timestamp": "2025-12-18T23:35:49.460164+00:00", "meta": {"OBJECT_NAME": "COSMOS 2251 DEB", "OBJECT_ID": "1993-036AVB", "EPOCH": "2025-12-17T07:40:10.456608", "MEAN_MOTION": 14.0541089, "ECCENTRICITY": 0.01917074, "INCLINATION": 73.9246, "RA_OF_ASC_NODE": 196.1239, "ARG_OF_PERICENTER": 128.5769, "MEAN_ANOMALY": 233.2717, "EPHEMERIS_TYPE": 0, "CLASSIFICATION_TYPE": "U", "NORAD_CAT_ID": 35961, "ELEMENT_SET_NO": 999, "REV_AT_EPOCH": 62746, "BSTAR": 0.0011473118, "MEAN_MOTION_DOT": 2.172e-05, "MEAN_MOTION_DDOT": 0}, "tle": {"line1": "1 35961U 93036AVB 25351.31956547  .00002172  00000+0  11473-2 0  9990", "line2": "2 35961  73.9246 196.1239 0191707 128.5769 233.2717 14.05410890627463"}}, "geometry": {"type": "Point", "coordinates": [-1.6440371652790218, 41.617247531060556]}}, {"type": "Feature", "properties": {"norad_id": 35979, "name": "COSMOS 2251 DEB", "group": "cosmos-2251-debris", "lat": 37.70060689629667, "lon": 33.3638727643239, "alt_km": 676.2724329240527, "timestamp": "2025-12-18T23:35:49.460175+00:00", "meta": {"OBJECT_NAME": "COSMOS 2251 DEB", "OBJECT_ID": "1993-036AVV", "EPOCH": "2025-12-17T22:37:43.321728", "MEAN_MOTION": 14.74704209, "ECCENTRICITY": 0.00591052, "INCLINATION": 74.0093, "RA_OF_ASC_NODE": 228.2039, "ARG_OF_PERICENTER": 359.1807, "MEAN_ANOMALY": 19.9586, "EPHEMERIS_TYPE": 0, "CLASSIFICATION_TYPE": "U", "NORAD_CAT_ID": 35979, "ELEMENT_SET_NO": 999, "REV_AT_EPOCH": 88710, "BSTAR": 0.00063181032, "MEAN_MOTION_DOT": 4.31e-05, "MEAN_MOTION_DDOT": 0}, "tle": {"line1": "1 35979U 93036AVV 25351.94286252  .00004310  00000+0  63181-3 0  9997", "line2": "2 35979  74.0093 228.2039 0059105 359.1807  19.9586 14.74704209887107"}}, "geometry": {"type": "Point", "coordinates": [33.3638727643239, 37.70060689629667]}}]}